     2.10           N: GPS NAV DATA                         RINEX VERSION / TYPE
teqc  2013Mar15     gpsops              20140523 00:24:07UTCPGM / RUN BY / DATE
Linux 2.4.21-27.ELsmp|Opteron|gcc -static|Linux x86_64|=+   COMMENT
GLPS                                    MARKER NAME         COMMENT
42005M002                               MARKER NUMBER       COMMENT
-33801.4662 -6377516.5323 -82154.3508                       COMMENT
                                                            COMMENT
This data is provided as a public service by NASA/JPL.      COMMENT
No warranty is expressed or implied regarding suitability   COMMENT
for use.  For further information, contact:                 COMMENT
Dave Stowers, NASA/JPL m/s 238-600                          COMMENT
4800 Oak Grove Drive, Pasadena CA 91109 USA                 COMMENT
                                                            END OF HEADER
24 14  5 22  8  0  0.0-2.878764644265D-05-6.821210263297D-13 0.000000000000D+00
    8.800000000000D+01-3.062500000000D+01 4.392325815143D-09-1.011088053613D+00
   -1.592561602592D-06 2.081838320009D-03 9.385868906975D-06 5.153737339020D+03
    3.744000000000D+05 9.313225746155D-08 1.554605767685D+00-8.568167686462D-08
    9.566514821113D-01 1.988437500000D+02 3.452829706731D-01-8.107123408517D-09
   -4.068026592493D-10 0.000000000000D+00 1.793000000000D+03 0.000000000000D+00
    2.800000000000D+00 0.000000000000D+00 2.793967723846D-09 8.800000000000D+01
    3.672000000000D+05 4.000000000000D+00
25 14  5 22  8  0  0.0 2.415291965008D-05 4.547473508865D-13 0.000000000000D+00
    5.000000000000D+01 2.328125000000D+01 3.988380417768D-09-3.039804962661D+00
    1.257285475731D-06 3.622784977779D-03 8.407980203629D-06 5.153610628128D+03
    3.744000000000D+05 2.793967723846D-08 2.609952924387D+00-3.539025783539D-08
    9.763691016007D-01 2.256562500000D+02 6.782363024644D-01-7.870327830745D-09
    3.793015137162D-10 0.000000000000D+00 1.793000000000D+03 0.000000000000D+00
    2.000000000000D+00 0.000000000000D+00 5.122274160385D-09 5.000000000000D+01
    3.672000000000D+05 4.000000000000D+00
26 14  5 22  8  0  0.0 7.111486047506D-05-1.170974428533D-11 0.000000000000D+00
    4.500000000000D+01 6.062500000000D+00 4.699481466552D-09-2.956839269367D-01
    4.973262548447D-07 2.137271629181D-02 5.699694156647D-06 5.153686395645D+03
    3.744000000000D+05-1.657754182816D-07 6.157987452552D-01 2.216547727585D-07
    9.752415209182D-01 2.784687500000D+02 1.283573180718D+00-8.638216959267D-09
   -2.760829285336D-10 0.000000000000D+00 1.793000000000D+03 0.000000000000D+00
    2.000000000000D+00 0.000000000000D+00-6.053596735001D-09 4.500000000000D+01
    3.672000000000D+05 4.000000000000D+00
29 14  5 22  8  0  0.0 5.342829972506D-04 2.728484105319D-12 0.000000000000D+00
    3.700000000000D+01-3.621875000000D+01 4.554118268734D-09-2.589616990868D+00
   -1.799315214157D-06 1.577582093887D-03 5.031004548073D-06 5.153701210022D+03
    3.744000000000D+05 3.352761268616D-08-2.571726169849D+00 5.587935447693D-08
    9.694685887038D-01 2.844062500000D+02-8.761764302538D-01-8.224271145333D-09
    1.221479450951D-10 0.000000000000D+00 1.793000000000D+03 0.000000000000D+00
    2.000000000000D+00 0.000000000000D+00-9.778887033463D-09 3.700000000000D+01
    3.672000000000D+05 4.000000000000D+00
18 14  5 22  7 59 44.0 3.207698464394D-04 2.387423592154D-12 0.000000000000D+00
    1.100000000000D+01 4.756250000000D+01 5.359151801612D-09 2.529037551742D+00
    2.333894371986D-06 1.529057789594D-02 9.303912520409D-06 5.153696510315D+03
    3.743840000000D+05 3.725290298462D-08-5.380188639481D-01-2.663582563400D-07
    9.259573381141D-01 1.778750000000D+02-2.038801430960D+00-8.177126324419D-09
    1.432202514126D-10 0.000000000000D+00 1.793000000000D+03 0.000000000000D+00
    2.000000000000D+00 0.000000000000D+00-1.117587089539D-08 1.100000000000D+01
    3.709800000000D+05 4.000000000000D+00
22 14  5 22  7 59 44.0 2.360702492297D-04 2.955857780762D-12 0.000000000000D+00
    1.600000000000D+01 5.415625000000D+01 5.511300996380D-09 1.971363556851D+00
    2.769753336906D-06 7.234152290039D-03 9.043142199516D-06 5.153729873657D+03
    3.743840000000D+05-1.229345798492D-07-5.361233653815D-01-2.086162567139D-07
    9.237332666841D-01 1.870312500000D+02-2.059363650111D+00-8.454280726156D-09
    2.089372745047D-10 0.000000000000D+00 1.793000000000D+03 0.000000000000D+00
    2.000000000000D+00 0.000000000000D+00-1.722946763039D-08 1.600000000000D+01
    3.716100000000D+05 4.000000000000D+00
14 14  5 22  8  0  0.0 1.706578768790D-04-3.410605131648D-12 0.000000000000D+00
    4.300000000000D+01 1.112500000000D+01 4.643050544549D-09 8.605122656413D-01
    6.351619958878D-07 7.500610197894D-03 5.289912223816D-06 5.153658964157D+03
    3.744000000000D+05-7.078051567078D-08 5.927046742659D-01 4.284083843231D-08
    9.704271379798D-01 2.865312500000D+02-2.001202530141D+00-8.379277601974D-09
   -3.164417524977D-10 0.000000000000D+00 1.793000000000D+03 0.000000000000D+00
    2.000000000000D+00 0.000000000000D+00-9.313225746155D-09 4.300000000000D+01
    3.739800000000D+05 4.000000000000D+00
21 14  5 22  8  0  0.0-3.625247627497D-04-2.160049916711D-12 0.000000000000D+00
    6.600000000000D+01-6.037500000000D+01 5.129142220790D-09-2.787620707317D+00
   -3.403052687645D-06 2.150464721490D-02 9.737908840179D-06 5.153759223938D+03
    3.744000000000D+05 3.315508365631D-07-1.583410326230D+00-1.974403858185D-07
    9.320137589827D-01 1.721250000000D+02-2.024961335013D+00-8.032120284336D-09
    2.892977646988D-11 0.000000000000D+00 1.793000000000D+03 0.000000000000D+00
    2.000000000000D+00 0.000000000000D+00-1.117587089539D-08 6.600000000000D+01
    3.743400000000D+05 4.000000000000D+00
 2 14  5 22 10  0  0.0 4.967455752194D-04 2.160049916711D-12 0.000000000000D+00
    3.900000000000D+01-4.187500000000D+01 5.079140138003D-09 4.708572428999D-01
   -2.261251211166D-06 1.355308422353D-02 1.054257154465D-05 5.153611690521D+03
    3.816000000000D+05-8.381903171539D-08-1.600840107153D+00 2.384185791016D-07
    9.390756946492D-01 1.680312500000D+02-2.424627880055D+00-8.431422631167D-09
   -1.707213969457D-10 0.000000000000D+00 1.793000000000D+03 0.000000000000D+00
    2.000000000000D+00 0.000000000000D+00-2.048909664154D-08 3.900000000000D+01
    3.744000000000D+05 4.000000000000D+00
12 14  5 22 10  0  0.0 2.065473236144D-04 2.501110429876D-12 0.000000000000D+00
    6.600000000000D+01 3.378125000000D+01 3.846588797292D-09-1.221283638634D+00
    1.726672053337D-06 5.145659088157D-03 8.165836334229D-06 5.153622144699D+03
    3.816000000000D+05 1.601874828339D-07 2.652256408828D+00-1.322478055954D-07
    9.876827614315D-01 2.371875000000D+02 4.351041775040D-01-7.823183009831D-09
    2.975123925853D-10 0.000000000000D+00 1.793000000000D+03 0.000000000000D+00
    2.000000000000D+00 0.000000000000D+00-1.210719347000D-08 6.600000000000D+01
    3.744000000000D+05 4.000000000000D+00
14 14  5 22 10  0  0.0 1.706331968307D-04-3.410605131648D-12 0.000000000000D+00
    7.100000000000D+01 1.353125000000D+01 4.640907598144D-09 1.910753629050D+00
    4.786998033524D-07 7.500561187044D-03 5.204230546951D-06 5.153658241272D+03
    3.816000000000D+05-6.891787052155D-08 5.926442528234D-01-1.471489667892D-07
    9.704257803918D-01 2.853437500000D+02-2.001252547310D+00-8.217127990649D-09
   -2.367955777720D-10 0.000000000000D+00 1.793000000000D+03 0.000000000000D+00
    2.000000000000D+00 0.000000000000D+00-9.313225746155D-09 7.100000000000D+01
    3.744000000000D+05 4.000000000000D+00
15 14  5 22 10  0  0.0-1.809042878449D-04-2.160049916711D-12 0.000000000000D+00
    5.100000000000D+01 1.784375000000D+01 5.587375593764D-09 1.297436749186D+00
    1.203268766403D-06 6.264408701099D-03 4.788860678673D-06 5.153688604355D+03
    3.816000000000D+05 3.911554813385D-08 4.808278678621D-01 1.005828380585D-07
    9.370532850134D-01 2.729687500000D+02 2.750962866588D-01-8.770722478653D-09
   -2.725113511916D-10 0.000000000000D+00 1.793000000000D+03 0.000000000000D+00
    2.000000000000D+00 0.000000000000D+00-1.024454832077D-08 5.100000000000D+01
    3.744000000000D+05 4.000000000000D+00
18 14  5 22  9 59 44.0 3.207870759070D-04 2.387423592154D-12 0.000000000000D+00
    2.600000000000D+01 5.559375000000D+01 5.395581890500D-09-2.703983574124D+00
    2.754852175713D-06 1.528938382398D-02 9.449198842049D-06 5.153698720932D+03
    3.815840000000D+05 3.483146429062D-07-5.380793205006D-01-1.452863216400D-07
    9.259586123158D-01 1.742500000000D+02-2.038792450106D+00-8.294988376704D-09
    3.593006806013D-10 0.000000000000D+00 1.793000000000D+03 0.000000000000D+00
    2.000000000000D+00 0.000000000000D+00-1.117587089539D-08 2.600000000000D+01
    3.744000000000D+05 4.000000000000D+00
21 14  5 22 10  0  0.0-3.625405952334D-04-2.160049916711D-12 0.000000000000D+00
    6.700000000000D+01-5.253125000000D+01 5.050924677001D-09-1.737525310949D+00
   -2.620741724968D-06 2.150481124409D-02 9.421259164810D-06 5.153757865906D+03
    3.816000000000D+05 4.302710294724D-07-1.583468240231D+00-5.587935447693D-09
    9.320142154131D-01 1.711562500000D+02-2.024924134469D+00-8.084265313528D-09
    5.214502919263D-11 0.000000000000D+00 1.793000000000D+03 0.000000000000D+00
    2.000000000000D+00 0.000000000000D+00-1.117587089539D-08 6.700000000000D+01
    3.744000000000D+05 4.000000000000D+00
22 14  5 22  9 59 44.0 2.360916696489D-04 2.955857780762D-12 0.000000000000D+00
    1.900000000000D+01 5.187500000000D+01 5.497729002480D-09 3.021641537099D+00
    2.611428499222D-06 7.234754506499D-03 9.434297680855D-06 5.153727970123D+03
    3.815840000000D+05 5.029141902924D-08-5.361837517140D-01-1.955777406693D-07
    9.237350880171D-01 1.782500000000D+02-2.059487013604D+00-8.382134863848D-09
    2.242950570751D-10 0.000000000000D+00 1.793000000000D+03 0.000000000000D+00
    2.000000000000D+00 0.000000000000D+00-1.722946763039D-08 1.900000000000D+01
    3.744000000000D+05 4.000000000000D+00
